{ "type": "FeatureCollection", "features": [{"type":"Feature","id":1,"properties":{"_id":"690370ff6ce882e95350e1d7","createdBy":"343335871795179081","createdAt":"2025-10-30T14:06:55.951Z","updatedBy":"eBT9qSrxquPVguazo7MwJzzaf2p1","updatedAt":"2025-10-30T15:19:56.369Z","name":"CHENNAI","dataIngestion":false,"type":10,"icaoClass":8,"activity":0,"onDemand":false,"onRequest":false,"byNotam":false,"specialAgreement":false,"requestCompliance":false,"country":"IN","upperLimit":{"value":999,"unit":6,"referenceDatum":2},"lowerLimit":{"value":0,"unit":1,"referenceDatum":0},"hoursOfOperation":{"operatingHours":[{"dayOfWeek":0,"startTime":"00:00","endTime":"00:00","byNotam":false,"sunrise":false,"sunset":false,"publicHolidaysExcluded":false},{"dayOfWeek":1,"startTime":"00:00","endTime":"00:00","byNotam":false,"sunrise":false,"sunset":false,"publicHolidaysExcluded":false},{"dayOfWeek":2,"startTime":"00:00","endTime":"00:00","byNotam":false,"sunrise":false,"sunset":false,"publicHolidaysExcluded":false},{"dayOfWeek":3,"startTime":"00:00","endTime":"00:00","byNotam":false,"sunrise":false,"sunset":false,"publicHolidaysExcluded":false},{"dayOfWeek":4,"startTime":"00:00","endTime":"00:00","byNotam":false,"sunrise":false,"sunset":false,"publicHolidaysExcluded":false},{"dayOfWeek":5,"startTime":"00:00","endTime":"00:00","byNotam":false,"sunrise":false,"sunset":false,"publicHolidaysExcluded":false},{"dayOfWeek":6,"startTime":"00:00","endTime":"00:00","byNotam":false,"sunrise":false,"sunset":false,"publicHolidaysExcluded":false}]},"deletable":true},"geometry":{"type":"Polygon","coordinates":[[[76,18],[76,16.66667],[75.46667,16.6],[74.18333,16.43333],[73.56639,16.36667],[73,16.28333],[73.58306,15],[72,15],[72,7.5],[74,7.5],[74,6],[78,6],[80,10],[82,10],[92,6],[94.41667,6],[94.41667,13.5],[92,14],[85.9,15.69972],[82.81639,18.68333],[82,18.71639],[77.16667,19.71639],[76,19.31639],[76,18]]]}}, {"type":"Feature","id":2,"properties":{"_id":"690371dc6ce882e95350f274","createdBy":"343335871795179081","createdAt":"2025-10-30T14:10:36.539Z","updatedBy":"eBT9qSrxquPVguazo7MwJzzaf2p1","updatedAt":"2025-10-30T15:19:56.442Z","name":"MUMBAI","dataIngestion":false,"type":10,"icaoClass":8,"activity":0,"onDemand":false,"onRequest":false,"byNotam":false,"specialAgreement":false,"requestCompliance":false,"country":"IN","upperLimit":{"value":999,"unit":6,"referenceDatum":2},"lowerLimit":{"value":0,"unit":1,"referenceDatum":0},"hoursOfOperation":{"operatingHours":[{"dayOfWeek":0,"startTime":"00:00","endTime":"00:00","byNotam":false,"sunrise":false,"sunset":false,"publicHolidaysExcluded":false},{"dayOfWeek":1,"startTime":"00:00","endTime":"00:00","byNotam":false,"sunrise":false,"sunset":false,"publicHolidaysExcluded":false},{"dayOfWeek":2,"startTime":"00:00","endTime":"00:00","byNotam":false,"sunrise":false,"sunset":false,"publicHolidaysExcluded":false},{"dayOfWeek":3,"startTime":"00:00","endTime":"00:00","byNotam":false,"sunrise":false,"sunset":false,"publicHolidaysExcluded":false},{"dayOfWeek":4,"startTime":"00:00","endTime":"00:00","byNotam":false,"sunrise":false,"sunset":false,"publicHolidaysExcluded":false},{"dayOfWeek":5,"startTime":"00:00","endTime":"00:00","byNotam":false,"sunrise":false,"sunset":false,"publicHolidaysExcluded":false},{"dayOfWeek":6,"startTime":"00:00","endTime":"00:00","byNotam":false,"sunrise":false,"sunset":false,"publicHolidaysExcluded":false}]},"deletable":true},"geometry":{"type":"Polygon","coordinates":[[[60,19.8],[60,-6],[68,-6],[68,0],[70,3.08333],[70,7.5],[72,7.5],[72,15],[73.58306,15],[73,16.28333],[73.56639,16.36667],[74.18333,16.43333],[75.46667,16.6],[76,16.66667],[76,18],[76,19.31639],[77.16667,19.71639],[82,18.71639],[80.59333,21.5025],[80.35417,22.48028],[80.05917,23.18028],[79.08194,25.00028],[70.91667,25],[70.89306,25.00167],[70.915,24.94639],[70.94278,24.89389],[71.00306,24.80806],[71.03667,24.72056],[71.05639,24.69278],[71.06361,24.6825],[71.04333,24.66889],[70.97694,24.63944],[70.96278,24.61556],[70.95472,24.58444],[70.9575,24.55583],[70.97694,24.54028],[70.98083,24.53472],[70.98167,24.52833],[70.98028,24.52167],[70.97694,24.515],[70.97472,24.49472],[70.97306,24.48722],[70.97306,24.47944],[70.97417,24.47194],[70.97694,24.46472],[71,24.45278],[71.04,24.44667],[71.075,24.43639],[71.0825,24.41139],[71.07306,24.40194],[71.025,24.38611],[71.01417,24.375],[71.00694,24.36389],[70.99667,24.35639],[70.97694,24.35722],[70.95528,24.36583],[70.93611,24.36694],[70.9175,24.36167],[70.85639,24.32361],[70.84083,24.30556],[70.84444,24.28806],[70.8575,24.27167],[70.85139,24.26472],[70.83389,24.26111],[70.81333,24.25444],[70.77583,24.23667],[70.75528,24.23139],[70.62139,24.24111],[70.58444,24.25778],[70.5675,24.27278],[70.56,24.28722],[70.55528,24.32694],[70.54556,24.36194],[70.54639,24.37306],[70.55194,24.37917],[70.56917,24.38972],[70.575,24.4],[70.56278,24.42389],[70.52083,24.42472],[70.41611,24.40194],[70.37056,24.37222],[70.35306,24.36611],[70.29833,24.36333],[70.27889,24.355],[70.2425,24.33056],[70.2225,24.32667],[70.20194,24.32556],[70.14444,24.30778],[70.10944,24.30472],[70.09778,24.29861],[70.08694,24.2825],[70.06278,24.22028],[70.05194,24.20194],[70.01583,24.17389],[69.97194,24.165],[69.76889,24.1625],[69.71444,24.16833],[69.67056,24.18861],[69.59222,24.26444],[69.56306,24.27667],[69.28056,24.28361],[69.20611,24.25833],[69.16667,24.25306],[69.14806,24.25639],[69.09167,24.28167],[69.0675,24.28833],[69.04833,24.285],[69.00778,24.26444],[68.98056,24.25528],[68.9625,24.25722],[68.94861,24.27],[68.92917,24.30222],[68.92194,24.31028],[68.91306,24.31722],[68.90417,24.32056],[68.89028,24.31944],[68.885,24.31333],[68.88306,24.30528],[68.88,24.29722],[68.84889,24.24389],[68.83861,24.23639],[68.81944,24.25028],[68.81361,24.30833],[68.79917,24.32889],[68.74722,24.33111],[68.72583,24.28917],[68.72528,24.20889],[68.725,24.10389],[68.72444,23.965],[68.64639,23.96556],[68.54778,23.96611],[68.43139,23.96694],[68.38528,23.96028],[68.35361,23.93917],[68.35361,23.94694],[68.35222,23.95639],[68.34861,23.96444],[68.3425,23.96833],[68.33028,23.96639],[68.32972,23.95806],[68.33361,23.94778],[68.335,23.94083],[68.32583,23.92778],[68.31389,23.91583],[68.30028,23.91028],[68.28611,23.91611],[68.28,23.92556],[68.2775,23.93333],[68.27389,23.9375],[68.26389,23.93583],[68.25472,23.92889],[68.2525,23.92],[68.25306,23.91111],[68.25167,23.90472],[68.25361,23.90278],[68.25778,23.89944],[68.26028,23.89528],[68.25667,23.89167],[68.25278,23.89167],[68.24278,23.89333],[68.23972,23.89306],[68.23278,23.88889],[68.215,23.88167],[68.20722,23.87694],[68.18333,23.84306],[68.18278,23.84194],[68.18306,23.84333],[68.15722,23.905],[68.15639,23.87389],[68.15722,23.86389],[68.16,23.85778],[68.16861,23.84472],[68.17056,23.83972],[68.16667,23.82],[68.14861,23.78083],[68.14306,23.76111],[68.14417,23.74306],[68.15472,23.71417],[68.16667,23.66667],[68.18167,23.64778],[68.17861,23.63361],[68.17528,23.63139],[68.17417,23.63139],[68.16722,23.63167],[68.15694,23.63194],[68.15,23.63111],[68.14333,23.6125],[68.15722,23.60056],[68.18139,23.59389],[68.23056,23.58806],[68.29389,23.59028],[68.30806,23.58889],[68.3175,23.58611],[68.32722,23.58667],[68.34194,23.59639],[68.34861,23.60333],[68.35278,23.61056],[68.35139,23.61778],[68.34194,23.62389],[68.41056,23.70028],[68.4275,23.71417],[68.44944,23.72333],[68.47278,23.73722],[68.51,23.74389],[68.52472,23.75194],[68.53833,23.76111],[68.55444,23.76833],[68.5875,23.77556],[68.59861,23.78167],[68.60917,23.795],[68.62306,23.82417],[68.63333,23.83306],[68.65389,23.83611],[68.69167,23.83639],[68.71778,23.84083],[68.74,23.85333],[68.76667,23.87833],[68.78,23.87389],[68.80556,23.88417],[68.82139,23.87833],[68.76861,23.84111],[68.75639,23.83611],[68.745,23.83306],[68.72556,23.81889],[68.71556,23.81556],[68.68,23.8175],[68.67056,23.81556],[68.65444,23.79889],[68.63778,23.76139],[68.60167,23.74861],[68.58333,23.73528],[68.55444,23.70639],[68.53861,23.68389],[68.53333,23.67917],[68.52389,23.67583],[68.50472,23.67417],[68.48889,23.66472],[68.46917,23.65917],[68.46528,23.655],[68.46861,23.64056],[68.47667,23.63917],[68.48611,23.64139],[68.4925,23.6375],[68.49139,23.61861],[68.47139,23.61861],[68.4275,23.63139],[68.40861,23.62111],[68.40472,23.5975],[68.41056,23.54861],[68.40583,23.50861],[68.38333,23.5],[64.5,23.5],[60,19.8]]]}}, {"type":"Feature","id":3,"properties":{"_id":"690371a06ce882e95350e47c","createdBy":"343335871795179081","createdAt":"2025-10-30T14:09:36.627Z","updatedBy":"eBT9qSrxquPVguazo7MwJzzaf2p1","updatedAt":"2025-10-30T15:19:56.531Z","name":"KOLKATA","dataIngestion":false,"type":10,"icaoClass":8,"activity":0,"onDemand":false,"onRequest":false,"byNotam":false,"specialAgreement":false,"requestCompliance":false,"country":"IN","upperLimit":{"value":999,"unit":6,"referenceDatum":2},"lowerLimit":{"value":0,"unit":1,"referenceDatum":0},"hoursOfOperation":{"operatingHours":[{"dayOfWeek":0,"startTime":"00:00","endTime":"00:00","byNotam":false,"sunrise":false,"sunset":false,"publicHolidaysExcluded":false},{"dayOfWeek":1,"startTime":"00:00","endTime":"00:00","byNotam":false,"sunrise":false,"sunset":false,"publicHolidaysExcluded":false},{"dayOfWeek":2,"startTime":"00:00","endTime":"00:00","byNotam":false,"sunrise":false,"sunset":false,"publicHolidaysExcluded":false},{"dayOfWeek":3,"startTime":"00:00","endTime":"00:00","byNotam":false,"sunrise":false,"sunset":false,"publicHolidaysExcluded":false},{"dayOfWeek":4,"startTime":"00:00","endTime":"00:00","byNotam":false,"sunrise":false,"sunset":false,"publicHolidaysExcluded":false},{"dayOfWeek":5,"startTime":"00:00","endTime":"00:00","byNotam":false,"sunrise":false,"sunset":false,"publicHolidaysExcluded":false},{"dayOfWeek":6,"startTime":"00:00","endTime":"00:00","byNotam":false,"sunrise":false,"sunset":false,"publicHolidaysExcluded":false}]},"deletable":true},"geometry":{"type":"Polygon","coordinates":[[[92,14],[92,21],[89.16667,21.63306],[89.085,21.67444],[89.0825,21.67806],[89.06778,21.70889],[89.04778,21.72778],[89.04361,21.73333],[89.03083,21.77028],[89.01583,21.85333],[88.99583,21.88417],[88.96806,21.90472],[88.95167,21.91361],[88.93778,21.9175],[88.92389,21.92611],[88.91056,21.94639],[88.905,21.96917],[88.91389,21.98639],[88.92861,21.98639],[88.93444,21.96917],[88.93778,21.94861],[88.94444,21.93861],[88.96028,21.93417],[88.99278,21.9125],[89.00944,21.90444],[89.00806,21.92056],[89.01278,21.92917],[89.02306,21.93083],[89.03667,21.925],[89.06083,21.93833],[89.06556,21.96694],[89.05722,22.03111],[89.05389,22.04361],[89.04,22.06944],[89.03667,22.08556],[89.03972,22.10083],[89.04556,22.11194],[89.04833,22.12278],[89.04361,22.13722],[89.06028,22.13056],[89.06028,22.12972],[89.06056,22.13028],[89.07806,22.15083],[89.07611,22.175],[89.07056,22.19472],[89.06222,22.21139],[89.01861,22.26444],[89.00889,22.28556],[89.02333,22.29472],[89.00694,22.32139],[89.00139,22.33361],[88.98944,22.38667],[88.98944,22.39667],[88.99194,22.40694],[89.00056,22.42],[89.0025,22.42778],[88.99833,22.45111],[88.97972,22.49083],[88.97083,22.52778],[88.95889,22.53667],[88.92778,22.54806],[88.95028,22.56194],[88.95639,22.58472],[88.95194,22.61167],[88.94222,22.63722],[88.93,22.65861],[88.92583,22.68083],[88.9225,22.69361],[88.91056,22.7225],[88.90806,22.74056],[88.91472,22.75417],[88.92611,22.76694],[88.93667,22.78222],[88.94111,22.79556],[88.945,22.815],[88.94667,22.83444],[88.94444,22.84778],[88.93306,22.85806],[88.905,22.86639],[88.89333,22.87944],[88.87194,22.92667],[88.86167,22.94222],[88.8425,22.96444],[88.83861,22.97556],[88.83917,22.99528],[88.84861,23.02361],[88.85111,23.075],[88.86472,23.1],[88.91889,23.15361],[88.94583,23.17417],[88.95444,23.18361],[88.95972,23.19444],[88.95972,23.2025],[88.95417,23.20722],[88.92694,23.20639],[88.91806,23.20833],[88.90944,23.21222],[88.83944,23.23472],[88.8225,23.23778],[88.80944,23.23583],[88.80083,23.23056],[88.79417,23.22472],[88.78611,23.22139],[88.77556,23.22139],[88.71,23.24111],[88.69639,23.25222],[88.68639,23.27139],[88.68583,23.29306],[88.695,23.3125],[88.71917,23.34806],[88.76778,23.46722],[88.77,23.48861],[88.75667,23.49861],[88.74361,23.48917],[88.73167,23.4725],[88.71917,23.46806],[88.70444,23.495],[88.69361,23.49972],[88.66444,23.51806],[88.6475,23.535],[88.62417,23.57361],[88.60917,23.58861],[88.60111,23.59028],[88.58139,23.58806],[88.57139,23.59222],[88.56167,23.60194],[88.56083,23.60861],[88.56417,23.61611],[88.56611,23.62861],[88.56111,23.63222],[88.55083,23.63417],[88.54139,23.63861],[88.54,23.64972],[88.56111,23.74083],[88.55972,23.75028],[88.5525,23.76528],[88.5525,23.77472],[88.5575,23.78556],[88.57222,23.80667],[88.5775,23.81833],[88.5775,23.8275],[88.57528,23.83639],[88.57417,23.84556],[88.5775,23.855],[88.59333,23.86667],[88.61306,23.86778],[88.63389,23.86611],[88.65306,23.86972],[88.66639,23.87944],[88.70417,23.91361],[88.71389,23.925],[88.71694,23.94306],[88.71417,23.96417],[88.70833,23.98333],[88.70139,23.99528],[88.71361,24.01444],[88.72528,24.02889],[88.725,24.03833],[88.70083,24.04361],[88.69778,24.05611],[88.67889,24.07111],[88.67389,24.0825],[88.67528,24.09167],[88.68167,24.1125],[88.68278,24.12417],[88.67806,24.14444],[88.67806,24.15417],[88.68361,24.16639],[88.69361,24.17528],[88.71583,24.18278],[88.73139,24.18972],[88.73472,24.19833],[88.74639,24.21389],[88.74972,24.22306],[88.74722,24.22694],[88.74472,24.24333],[88.74278,24.2475],[88.7375,24.28694],[88.71444,24.31528],[88.68167,24.33389],[88.66,24.33806],[88.64944,24.31528],[88.63444,24.29389],[88.61222,24.29278],[88.56306,24.30806],[88.49833,24.31083],[88.47528,24.31528],[88.40111,24.36917],[88.13861,24.495],[88.10972,24.50083],[88.10778,24.50778],[88.09861,24.52222],[88.09,24.53278],[88.08583,24.53667],[88.08472,24.54167],[88.08472,24.59361],[88.08167,24.59972],[88.06722,24.61361],[88.05722,24.63389],[88.04083,24.64028],[88.02167,24.64556],[88.02694,24.67556],[88.03528,24.69361],[88.04833,24.71111],[88.05306,24.75472],[88.06417,24.75889],[88.07694,24.76111],[88.08389,24.77028],[88.08528,24.78389],[88.08806,24.79611],[88.09472,24.80306],[88.10778,24.80083],[88.11722,24.81917],[88.13111,24.83167],[88.14083,24.84444],[88.13806,24.86333],[88.12472,24.89806],[88.12028,24.90667],[88.11472,24.91194],[88.11472,24.91639],[88.16444,24.94111],[88.18278,24.94694],[88.20222,24.94528],[88.21861,24.935],[88.23278,24.91806],[88.24167,24.89861],[88.2425,24.88056],[88.25472,24.87972],[88.29667,24.86944],[88.31333,24.86806],[88.3225,24.87444],[88.34083,24.90389],[88.37556,24.94556],[88.38778,24.96861],[88.39083,24.995],[88.41389,25.02139],[88.42556,25.05083],[88.43417,25.11639],[88.43139,25.17278],[88.44111,25.18972],[88.47528,25.195],[88.49167,25.19111],[88.52306,25.17972],[88.55,25.17306],[88.55444,25.17111],[88.55917,25.17056],[88.57056,25.17306],[88.5775,25.17722],[88.59,25.19],[88.59889,25.19306],[88.63417,25.19222],[88.66444,25.18667],[88.72444,25.16639],[88.78417,25.16083],[88.79222,25.16639],[88.8025,25.18806],[88.80889,25.195],[88.81694,25.19667],[88.82333,25.19472],[88.83,25.19111],[88.89861,25.16917],[88.92389,25.16778],[88.90944,25.18889],[88.92778,25.1925],[88.93056,25.2025],[88.92778,25.21583],[88.92889,25.22917],[88.9375,25.24],[88.97528,25.265],[88.98222,25.27472],[88.98472,25.28472],[88.9825,25.29444],[88.97528,25.3025],[88.92639,25.30028],[88.90278,25.30333],[88.88611,25.31889],[88.88,25.32333],[88.85917,25.32444],[88.84889,25.32694],[88.84194,25.33278],[88.81806,25.35944],[88.81389,25.37028],[88.81306,25.38],[88.81028,25.38833],[88.79944,25.39556],[88.79917,25.40167],[88.81611,25.43694],[88.81472,25.45833],[88.80556,25.47167],[88.79306,25.48194],[88.78083,25.495],[88.77222,25.50194],[88.74194,25.5125],[88.7425,25.495],[88.7325,25.49083],[88.72306,25.49139],[88.71389,25.49278],[88.70611,25.49167],[88.69556,25.48361],[88.68694,25.47389],[88.67806,25.46583],[88.66611,25.46278],[88.64528,25.46722],[88.61306,25.48639],[88.59333,25.495],[88.55083,25.49639],[88.53028,25.5],[88.52028,25.50917],[88.5125,25.52361],[88.48556,25.5425],[88.47528,25.5625],[88.43778,25.57972],[88.42361,25.59222],[88.41917,25.65361],[88.39278,25.68056],[88.32,25.725],[88.25972,25.78889],[88.22722,25.80417],[88.1825,25.79222],[88.16611,25.78361],[88.14639,25.77556],[88.1275,25.77472],[88.11472,25.78722],[88.10778,25.80611],[88.10333,25.81472],[88.0875,25.83083],[88.0875,25.83972],[88.08889,25.84861],[88.08194,25.86361],[88.07417,25.90806],[88.07722,25.91278],[88.0825,25.91583],[88.08778,25.92306],[88.10639,25.97972],[88.12583,26.01333],[88.15083,26.03111],[88.15778,26.05028],[88.15639,26.06139],[88.15083,26.06694],[88.14472,26.07028],[88.14111,26.07528],[88.13972,26.08528],[88.14111,26.09028],[88.14444,26.09583],[88.15556,26.12833],[88.16361,26.14028],[88.19667,26.15944],[88.20556,26.16639],[88.21194,26.17361],[88.21861,26.18],[88.22972,26.18389],[88.25028,26.18778],[88.30861,26.20583],[88.32611,26.21583],[88.33444,26.23056],[88.33278,26.26722],[88.33639,26.28167],[88.35167,26.30083],[88.36667,26.31333],[88.41361,26.34],[88.42111,26.34861],[88.42583,26.35778],[88.43167,26.36194],[88.44194,26.35611],[88.44861,26.35333],[88.45778,26.35278],[88.46778,26.35389],[88.47528,26.35556],[88.4975,26.3525],[88.49528,26.37806],[88.47528,26.43194],[88.46111,26.45389],[88.43444,26.465],[88.37667,26.47528],[88.35333,26.48444],[88.34639,26.48389],[88.34278,26.47694],[88.34,26.45389],[88.33556,26.44806],[88.3225,26.45167],[88.315,26.465],[88.31361,26.48139],[88.31917,26.49472],[88.33222,26.51444],[88.35278,26.57861],[88.36,26.59306],[88.3725,26.61139],[88.38528,26.62333],[88.39417,26.61778],[88.39583,26.59944],[88.39472,26.57833],[88.39778,26.55861],[88.41083,26.545],[88.44639,26.53528],[88.46222,26.52861],[88.47528,26.51472],[88.48778,26.50556],[88.49861,26.49472],[88.50667,26.4875],[88.52667,26.47528],[88.54972,26.46639],[88.55778,26.46556],[88.57917,26.46583],[88.59111,26.46111],[88.59778,26.45139],[88.60333,26.44],[88.61139,26.43083],[88.62222,26.42444],[88.63278,26.42],[88.65611,26.415],[88.65167,26.40694],[88.64972,26.39833],[88.65222,26.39139],[88.66083,26.38861],[88.66833,26.38556],[88.66722,26.36806],[88.67333,26.36056],[88.69611,26.35028],[88.70944,26.34056],[88.71222,26.32806],[88.70278,26.30944],[88.69,26.29972],[88.65306,26.28306],[88.64583,26.27583],[88.66333,26.26444],[88.74778,26.2925],[88.78389,26.27972],[88.79194,26.26444],[88.79833,26.2475],[88.80778,26.23333],[88.82472,26.22639],[88.84056,26.23194],[88.85556,26.265],[88.87556,26.27722],[88.9025,26.27278],[88.94667,26.23278],[88.97528,26.22417],[89.01944,26.23444],[89.03944,26.24694],[89.03417,26.26556],[89.02333,26.26861],[89.01139,26.26917],[89.00417,26.27556],[89.00778,26.29694],[88.99861,26.29139],[88.98944,26.28917],[88.98167,26.29167],[88.97528,26.29972],[88.96583,26.32833],[88.94111,26.34],[88.91222,26.34889],[88.89167,26.36861],[88.89111,26.38556],[88.89944,26.40444],[88.91194,26.42111],[88.92444,26.43194],[88.94083,26.43917],[88.95,26.43667],[88.95917,26.42833],[88.97528,26.41778],[88.98639,26.4125],[89.00167,26.39694],[89.01083,26.39],[89.02167,26.38611],[89.04361,26.38083],[89.0525,26.37444],[89.05722,26.3625],[89.05389,26.35389],[89.055,26.34694],[89.07167,26.34056],[89.09556,26.33444],[89.10278,26.32722],[89.10333,26.31361],[89.09472,26.30944],[89.08028,26.31556],[89.06861,26.31417],[89.06917,26.28722],[89.07583,26.27083],[89.09583,26.24083],[89.10333,26.225],[89.11167,26.16444],[89.11917,26.14639],[89.13139,26.13361],[89.19778,26.1075],[89.2125,26.09889],[89.22306,26.08639],[89.22917,26.06694],[89.2375,26.05806],[89.27278,26.04333],[89.29667,26.01806],[89.315,26.00667],[89.33528,25.99833],[89.35139,25.99667],[89.3675,26.00528],[89.37972,26.01528],[89.39139,26.01528],[89.40639,25.995],[89.41111,25.99306],[89.41611,25.9925],[89.42111,25.99306],[89.42611,25.99472],[89.42639,25.995],[89.48056,25.99917],[89.48556,25.99861],[89.49056,25.99722],[89.49528,25.995],[89.50944,25.9725],[89.51806,25.96194],[89.52833,25.95694],[89.54167,25.95944],[89.54889,25.96861],[89.55167,25.98139],[89.55056,25.995],[89.55889,26.02222],[89.60278,26.055],[89.61111,26.07194],[89.60361,26.08444],[89.59056,26.085],[89.57667,26.0825],[89.56694,26.08694],[89.56667,26.09889],[89.57778,26.10722],[89.5925,26.11389],[89.60417,26.12056],[89.58556,26.12278],[89.56917,26.13],[89.56278,26.1425],[89.57333,26.16056],[89.57972,26.16583],[89.58667,26.16917],[89.59389,26.16944],[89.61417,26.16417],[89.61528,26.16889],[89.60833,26.18056],[89.60639,26.21083],[89.61306,26.21917],[89.63472,26.22583],[89.65278,26.2225],[89.65833,26.20778],[89.65778,26.18694],[89.65722,26.16528],[89.65556,26.16111],[89.65806,26.15917],[89.67028,26.15389],[89.6775,26.15306],[89.6975,26.15472],[89.70639,26.15417],[89.71833,26.14528],[89.72417,26.13056],[89.72861,26.11417],[89.73667,26.10056],[89.74972,26.08361],[89.75111,26.07139],[89.74861,26.05889],[89.75,26.04139],[89.75583,26.03222],[89.77639,26.00806],[89.78389,25.995],[89.78917,25.98778],[89.79528,25.98583],[89.80194,25.98861],[89.80861,25.995],[89.80917,25.995],[89.81083,25.99583],[89.8125,25.99611],[89.81389,25.99611],[89.815,25.995],[89.82861,25.97917],[89.82556,25.96556],[89.81139,25.955],[89.79194,25.94889],[89.81056,25.93861],[89.82639,25.93722],[89.83417,25.93167],[89.83,25.90778],[89.78694,25.83889],[89.78306,25.81444],[89.80139,25.72444],[89.82417,25.67389],[89.83417,25.63472],[89.825,25.56444],[89.82306,25.48889],[89.80833,25.43944],[89.80056,25.41278],[89.79917,25.40278],[89.795,25.37389],[89.79833,25.34],[89.80722,25.30444],[89.81889,25.28472],[89.83444,25.28222],[89.87,25.29556],[89.90806,25.29667],[90.13,25.21139],[90.28667,25.18],[90.36444,25.14972],[90.39972,25.14889],[90.50111,25.16861],[90.58333,25.16194],[90.62333,25.17139],[90.6375,25.17083],[90.64889,25.16778],[90.67056,25.15861],[90.7075,25.15278],[90.71611,25.15333],[90.72194,25.15639],[90.7325,25.16667],[90.73778,25.16917],[90.75389,25.1675],[90.76667,25.16028],[90.77917,25.15194],[90.79389,25.14528],[90.82194,25.14222],[90.93472,25.15611],[90.94333,25.15722],[90.975,25.16778],[91.13528,25.19111],[91.19083,25.18944],[91.20306,25.19111],[91.22472,25.20139],[91.23556,25.20167],[91.28389,25.17889],[91.43167,25.13778],[91.47083,25.13389],[91.48056,25.135],[91.50083,25.14111],[91.51139,25.14222],[91.52333,25.145],[91.54,25.1575],[91.54861,25.16083],[91.56611,25.15972],[91.57333,25.15222],[91.58,25.14083],[91.59611,25.12889],[91.61306,25.125],[91.63861,25.12389],[91.66194,25.12694],[91.67222,25.13639],[91.67722,25.1525],[91.68889,25.15278],[91.70167,25.14694],[91.71056,25.14444],[91.7175,25.14972],[91.72361,25.16167],[91.73,25.16722],[91.74528,25.16917],[91.79361,25.16528],[91.90056,25.1775],[91.95611,25.16972],[91.975,25.17528],[92.00167,25.18278],[92.03389,25.18167],[92.06583,25.17444],[92.09278,25.16444],[92.10028,25.15889],[92.11028,25.14472],[92.11611,25.13944],[92.12389,25.13694],[92.13833,25.13639],[92.14528,25.13167],[92.15083,25.12972],[92.16472,25.13333],[92.1725,25.13194],[92.17917,25.12667],[92.19389,25.10889],[92.20778,25.09806],[92.22,25.09028],[92.23361,25.08472],[92.25139,25.08056],[92.30333,25.07417],[92.31194,25.06833],[92.32806,25.04778],[92.35611,25.03694],[92.38083,25.02333],[92.38472,25.00472],[92.38667,24.99528],[92.38667,24.995],[92.38694,24.995],[92.39444,24.99306],[92.41167,24.9875],[92.41194,24.98722],[92.41222,24.98722],[92.41222,24.98417],[92.41222,24.98389],[92.44444,24.96222],[92.45361,24.95806],[92.45389,24.95806],[92.45778,24.95333],[92.45806,24.95306],[92.45,24.94639],[92.44972,24.94639],[92.47417,24.93667],[92.48361,24.92806],[92.49111,24.91222],[92.49444,24.89472],[92.49139,24.88361],[92.4775,24.86389],[92.44194,24.85528],[92.38056,24.83667],[92.37083,24.83778],[92.36333,24.84083],[92.36333,24.84111],[92.35917,24.84611],[92.35917,24.84639],[92.35806,24.85361],[92.29028,24.89111],[92.29,24.89111],[92.25194,24.90278],[92.22278,24.89111],[92.2175,24.87444],[92.22167,24.85694],[92.22167,24.85667],[92.23472,24.82472],[92.235,24.82472],[92.23667,24.80833],[92.23639,24.79278],[92.23361,24.7775],[92.18278,24.64722],[92.17333,24.60833],[92.16861,24.57417],[92.16333,24.55917],[92.15306,24.54444],[92.14972,24.54194],[92.13833,24.53361],[92.12306,24.52528],[92.11083,24.51417],[92.10583,24.495],[92.11111,24.43417],[92.1075,24.40583],[92.08806,24.38139],[92.0625,24.37083],[92.03333,24.36861],[91.94972,24.37528],[91.94861,24.36333],[91.97111,24.32944],[91.97194,24.31583],[91.95306,24.32278],[91.93083,24.33694],[91.92167,24.34444],[91.89972,24.33778],[91.89639,24.32],[91.90667,24.28028],[91.90583,24.26056],[91.88417,24.17528],[91.87694,24.15778],[91.86444,24.15056],[91.84417,24.15528],[91.81361,24.18306],[91.81111,24.19194],[91.80972,24.21444],[91.80694,24.22111],[91.79639,24.22139],[91.73278,24.23417],[91.72278,24.22083],[91.72556,24.20194],[91.73194,24.18167],[91.7325,24.16417],[91.72111,24.14889],[91.70361,24.14278],[91.68389,24.14528],[91.66611,24.15583],[91.65694,24.17111],[91.63944,24.21167],[91.62889,24.21528],[91.62444,24.20333],[91.61361,24.14],[91.60583,24.11861],[91.59639,24.10472],[91.58167,24.09583],[91.55861,24.08944],[91.5175,24.085],[91.48028,24.08778],[91.40444,24.10306],[91.36278,24.09972],[91.35083,24.07417],[91.34917,24.03583],[91.33889,23.995],[91.32694,23.98778],[91.31611,23.98944],[91.30833,23.9925],[91.30472,23.99361],[91.29139,23.99472],[91.27389,23.98806],[91.26083,23.97722],[91.25028,23.96389],[91.21611,23.90833],[91.21167,23.89444],[91.2125,23.88056],[91.22389,23.85722],[91.22806,23.84472],[91.225,23.82611],[91.205,23.77139],[91.19472,23.755],[91.17639,23.74639],[91.1575,23.74472],[91.14167,23.73972],[91.13222,23.72056],[91.13639,23.69889],[91.15222,23.69083],[91.16889,23.68528],[91.175,23.67028],[91.16639,23.65389],[91.15222,23.655],[91.13944,23.65333],[91.13611,23.62944],[91.14056,23.61194],[91.16972,23.56194],[91.1775,23.54417],[91.18583,23.51139],[91.195,23.495],[91.20333,23.48778],[91.22056,23.47778],[91.22722,23.46861],[91.22944,23.46111],[91.23444,23.43611],[91.24778,23.39361],[91.25806,23.37361],[91.27083,23.36444],[91.28389,23.36139],[91.28722,23.35528],[91.28278,23.3475],[91.27278,23.33833],[91.26556,23.32917],[91.2675,23.32139],[91.27278,23.31333],[91.27722,23.30306],[91.30028,23.14222],[91.31333,23.10083],[91.33722,23.07083],[91.37083,23.06278],[91.37444,23.09556],[91.35583,23.17944],[91.35556,23.22389],[91.36083,23.2475],[91.37194,23.26167],[91.39417,23.2625],[91.41333,23.24861],[91.42806,23.22944],[91.43639,23.21472],[91.43611,23.21556],[91.43944,23.2225],[91.43972,23.22333],[91.44639,23.21528],[91.44667,23.20861],[91.44528,23.20278],[91.44639,23.19778],[91.46111,23.18417],[91.46333,23.18389],[91.47028,23.15306],[91.475,23.14306],[91.49806,23.06972],[91.50306,23.04417],[91.50583,23.04111],[91.51556,23.03861],[91.51806,23.035],[91.51917,23.00556],[91.52361,22.995],[91.53639,22.98167],[91.54972,22.97722],[91.56306,22.97472],[91.57667,22.96861],[91.58306,22.95778],[91.58278,22.94778],[91.58583,22.94444],[91.60222,22.95278],[91.60806,22.96028],[91.61194,22.96972],[91.61639,22.97806],[91.62556,22.98139],[91.63278,22.98028],[91.63972,22.97778],[91.64667,22.97639],[91.65389,22.97806],[91.6675,22.9825],[91.69444,22.98806],[91.70694,22.99528],[91.71417,23.00306],[91.73111,23.01722],[91.73806,23.02444],[91.755,23.04806],[91.75611,23.05194],[91.75556,23.05667],[91.75583,23.06139],[91.76083,23.06528],[91.76417,23.06556],[91.77361,23.06472],[91.77611,23.065],[91.79111,23.08028],[91.79556,23.08944],[91.79194,23.10111],[91.77889,23.13167],[91.76389,23.20056],[91.74889,23.23222],[91.74361,23.27222],[91.7625,23.32139],[91.79139,23.36833],[91.8175,23.40083],[91.83361,23.41389],[91.88889,23.43583],[91.905,23.44639],[91.91806,23.45972],[91.94056,23.495],[91.94222,23.53417],[91.91583,23.65],[91.91417,23.68806],[91.91639,23.70972],[91.9225,23.72278],[91.93639,23.72333],[91.94889,23.70972],[91.96139,23.69111],[92.00333,23.64722],[92.01889,23.64],[92.04222,23.64556],[92.05944,23.65944],[92.09194,23.70111],[92.10833,23.71806],[92.15056,23.73139],[92.17056,23.70361],[92.18056,23.66528],[92.19417,23.64806],[92.20917,23.66139],[92.22194,23.70778],[92.23861,23.71667],[92.25917,23.70639],[92.25972,23.7025],[92.26167,23.685],[92.25,23.6425],[92.25278,23.60917],[92.29083,23.49528],[92.29667,23.44639],[92.30139,23.43167],[92.30667,23.42361],[92.31972,23.41194],[92.32528,23.40333],[92.32667,23.39583],[92.32528,23.38194],[92.32667,23.375],[92.33139,23.36861],[92.34472,23.35889],[92.34833,23.35389],[92.34944,23.34472],[92.34667,23.32528],[92.34694,23.31528],[92.35222,23.29861],[92.35667,23.28889],[92.35722,23.27889],[92.35056,23.26083],[92.3325,23.22611],[92.32833,23.21111],[92.3275,23.17139],[92.35278,23.02972],[92.35222,22.96028],[92.35972,22.92639],[92.37861,22.90028],[92.41167,22.88778],[92.42611,22.87083],[92.435,22.79306],[92.44194,22.76278],[92.45361,22.74778],[92.48056,22.72611],[92.49139,22.71083],[92.49583,22.69556],[92.50278,22.61861],[92.50083,22.56028],[92.50444,22.54361],[92.51722,22.5125],[92.51889,22.49528],[92.57694,22.16861],[92.57556,22.14306],[92.56417,22.13833],[92.54917,22.13833],[92.53722,22.12861],[92.55972,22.06111],[92.57306,21.99528],[92.575,21.98639],[92.57583,21.9775],[92.58361,21.98028],[92.59111,21.98417],[92.59778,21.98917],[92.60361,21.99528],[92.615,22.00861],[92.6275,22.01222],[92.63972,22.01333],[92.65083,22.01917],[92.65833,22.03278],[92.65833,22.04639],[92.65583,22.06056],[92.65611,22.07528],[92.66194,22.09472],[92.66444,22.09361],[92.66944,22.0925],[92.67389,22.095],[92.67444,22.10556],[92.67083,22.13389],[92.67389,22.14694],[92.68361,22.15417],[92.70806,22.14778],[92.77139,22.10417],[92.83611,22.04639],[92.85389,22.02389],[92.86194,21.99528],[92.86694,21.96639],[92.87722,21.95694],[92.88917,21.96667],[92.89861,21.99528],[92.90611,22.01722],[92.92083,22.02167],[92.93722,22.01278],[92.95028,21.99528],[92.95556,21.98944],[92.96167,21.98667],[92.96806,21.98722],[92.97472,21.99083],[92.97694,21.99278],[92.97889,21.99528],[92.97972,22.00222],[92.97944,22.00917],[92.97778,22.01639],[92.97472,22.02306],[92.96833,22.03611],[92.96528,22.04944],[92.96694,22.0625],[92.98528,22.09583],[92.995,22.10306],[93.00722,22.10583],[93.02528,22.11278],[93.0225,22.12083],[93.02389,22.18861],[93.02222,22.19611],[93.02444,22.20167],[93.03639,22.20611],[93.04556,22.20667],[93.07222,22.20222],[93.09056,22.19694],[93.10417,22.18694],[93.11944,22.18083],[93.14167,22.18722],[93.12306,22.21833],[93.12333,22.23056],[93.12472,22.23222],[93.12972,22.23139],[93.15139,22.24083],[93.16111,22.2425],[93.16889,22.24667],[93.17361,22.25917],[93.17417,22.26917],[93.16583,22.38639],[93.15333,22.4275],[93.11778,22.46278],[93.10944,22.47889],[93.09889,22.51194],[93.09806,22.535],[93.10889,22.57444],[93.11028,22.59611],[93.10417,22.61583],[93.08167,22.65278],[93.07389,22.67167],[93.07083,22.69278],[93.07944,22.7725],[93.11222,22.79972],[93.11583,22.79833],[93.12528,22.82139],[93.16083,22.86083],[93.17528,22.88167],[93.17722,22.9],[93.17083,22.92028],[93.15111,22.95611],[93.14306,22.9775],[93.13806,23.005],[93.14,23.03167],[93.15222,23.04972],[93.17694,23.05833],[93.19639,23.05361],[93.21194,23.03972],[93.22528,23.02028],[93.24639,23.00444],[93.27278,23.00583],[93.29861,23.01778],[93.31806,23.03361],[93.33333,23.05222],[93.37472,23.12972],[93.375,23.14194],[93.37278,23.15417],[93.3725,23.16972],[93.38056,23.23722],[93.37639,23.27944],[93.37778,23.29667],[93.38417,23.31306],[93.40361,23.33861],[93.40722,23.34722],[93.4075,23.35611],[93.40583,23.3675],[93.39972,23.42583],[93.4,23.45389],[93.43222,23.64722],[93.43028,23.68028],[93.42583,23.69056],[93.41222,23.70861],[93.40611,23.71889],[93.37472,23.73889],[93.35806,23.855],[93.35917,23.89083],[93.35583,23.90694],[93.35167,23.91389],[93.34583,23.91861],[93.3375,23.92833],[93.31583,23.96083],[93.30806,23.9775],[93.30278,23.99528],[93.30083,24.01639],[93.3025,24.03556],[93.30278,24.04111],[93.30944,24.06389],[93.32194,24.08],[93.34833,24.08889],[93.36806,24.07833],[93.39639,24.0375],[93.40639,24.02583],[93.43917,23.995],[93.44556,23.98139],[93.44889,23.96889],[93.45639,23.95972],[93.47472,23.9575],[93.49556,23.95889],[93.52667,23.97528],[93.54333,23.98083],[93.54972,23.97778],[93.555,23.97083],[93.56111,23.96556],[93.57083,23.96778],[93.57694,23.97278],[93.58167,23.97944],[93.58556,23.98722],[93.58778,23.995],[93.61222,24.00889],[93.66028,24.01111],[93.71083,24.00528],[93.74278,23.99528],[93.78278,23.94528],[93.80361,23.93583],[93.88306,23.94528],[93.91222,23.93889],[93.94028,23.92861],[93.975,23.92083],[93.99778,23.91694],[94.055,23.88778],[94.07083,23.87611],[94.08528,23.8575],[94.09944,23.8425],[94.11667,23.84139],[94.12861,23.85389],[94.13167,23.85694],[94.135,23.87722],[94.13361,23.89889],[94.135,23.91889],[94.14472,23.93861],[94.19,23.99528],[94.19361,24.00944],[94.19889,24.04806],[94.20361,24.0575],[94.21389,24.06917],[94.21833,24.08667],[94.22194,24.1225],[94.23389,24.16028],[94.2825,24.26639],[94.28667,24.28306],[94.28972,24.31667],[94.29528,24.3325],[94.30278,24.34083],[94.32361,24.35444],[94.33056,24.36278],[94.33167,24.37083],[94.32806,24.38833],[94.32861,24.39444],[94.34,24.40583],[94.35194,24.41389],[94.36111,24.42528],[94.36361,24.46556],[94.37028,24.4775],[94.38167,24.48611],[94.39694,24.495],[94.41056,24.54583],[94.41833,24.56028],[94.43,24.57083],[94.47472,24.59722],[94.48694,24.62028],[94.50778,24.68889],[94.51611,24.70472],[94.53083,24.70722],[94.54333,24.70722],[94.55556,24.70861],[94.56944,24.71639],[94.58139,24.73],[94.58944,24.74722],[94.59306,24.76583],[94.59306,24.78361],[94.59889,24.81333],[94.63889,24.86278],[94.65472,24.88889],[94.67333,24.97472],[94.68972,24.995],[94.70833,25.02583],[94.71361,25.06806],[94.70667,25.10972],[94.68889,25.13833],[94.65306,25.15389],[94.61278,25.16111],[94.57667,25.17333],[94.55306,25.20389],[94.55,25.24528],[94.60778,25.39444],[94.63028,25.42722],[94.65028,25.44639],[94.65944,25.45528],[94.69194,25.47611],[94.71111,25.48278],[94.74556,25.48639],[94.76417,25.49167],[94.78222,25.50444],[94.80778,25.5425],[94.82222,25.55889],[94.83083,25.56222],[94.85056,25.56278],[94.86028,25.56694],[94.86083,25.57139],[94.85278,25.58056],[94.85333,25.58583],[94.85722,25.58917],[94.86778,25.59444],[94.87139,25.59778],[94.96139,25.71778],[94.96889,25.72556],[94.97861,25.72889],[94.99972,25.73139],[95.00861,25.73694],[95.01528,25.755],[95.01333,25.7775],[94.99306,25.88083],[94.99389,25.90028],[95.00056,25.92194],[95.01194,25.93139],[95.04917,25.94361],[95.06583,25.95361],[95.10806,25.995],[95.13944,26.02972],[95.15111,26.04972],[95.15,26.07083],[95.13722,26.08278],[95.10167,26.09333],[95.08806,26.10389],[95.07833,26.17111],[95.08222,26.17972],[95.08972,26.1875],[95.09444,26.195],[95.09056,26.2025],[95.08278,26.20639],[95.07444,26.20806],[95.06611,26.21083],[95.05861,26.2175],[95.04611,26.24778],[95.04167,26.2875],[95.04361,26.3275],[95.05028,26.35889],[95.06417,26.3925],[95.06583,26.40722],[95.06167,26.42639],[95.0425,26.45944],[95.04056,26.47556],[95.05417,26.49472],[95.06972,26.50611],[95.09917,26.53583],[95.10944,26.55111],[95.11472,26.5625],[95.11611,26.56917],[95.11583,26.57556],[95.11889,26.60417],[95.12278,26.61139],[95.1325,26.62056],[95.14139,26.62472],[95.16333,26.62972],[95.17306,26.63361],[95.18139,26.64167],[95.19556,26.66056],[95.20472,26.6675],[95.22306,26.67028],[95.23889,26.64944],[95.24667,26.64889],[95.26056,26.6475],[95.27889,26.65278],[95.31583,26.66889],[95.3925,26.69167],[95.41056,26.70139],[95.43972,26.73528],[95.4625,26.77694],[95.48972,26.81056],[95.53111,26.82],[95.55417,26.81639],[95.57472,26.81611],[95.59111,26.82361],[95.60333,26.84417],[95.61306,26.86778],[95.62417,26.88056],[95.63972,26.88639],[95.68583,26.89111],[95.69917,26.89611],[95.70917,26.90722],[95.73472,26.94722],[95.77778,26.995],[95.80472,27.00472],[95.86139,27.01417],[95.88861,27.02694],[95.91639,27.05111],[95.93833,27.07972],[95.97472,27.14278],[96.01306,27.19056],[96.07389,27.22972],[96.1425,27.2575],[96.40778,27.29806],[96.47444,27.29528],[96.49,27.29056],[96.51083,27.29222],[96.53167,27.29833],[96.54722,27.30639],[96.56722,27.32806],[96.57583,27.34528],[96.58667,27.35333],[96.61417,27.34833],[96.62306,27.34361],[96.62917,27.33861],[96.63639,27.33528],[96.64889,27.33611],[96.65917,27.34139],[96.67583,27.3575],[96.68722,27.36167],[96.705,27.36056],[96.72389,27.35611],[96.75861,27.34167],[96.77611,27.33056],[96.78889,27.31778],[96.80972,27.28556],[96.82167,27.27306],[96.85361,27.24861],[96.85944,27.24056],[96.85111,27.22111],[96.84167,27.20417],[96.8425,27.18833],[96.86528,27.17139],[97.00278,27.11444],[97.01167,27.10694],[97.01889,27.09861],[97.02667,27.09139],[97.03778,27.08694],[97.04778,27.08778],[97.05861,27.09194],[97.06694,27.095],[97.07694,27.09639],[97.08972,27.09194],[97.09778,27.08583],[97.10583,27.0825],[97.11917,27.08722],[97.12278,27.09361],[97.13278,27.11944],[97.13472,27.12722],[97.12917,27.13778],[97.12056,27.14389],[97.11167,27.14861],[97.10417,27.15583],[97.10167,27.165],[97.10111,27.18306],[97.09528,27.19111],[97.06778,27.21694],[96.905,27.40833],[96.88111,27.44389],[96.87694,27.46306],[96.89,27.49222],[96.88833,27.50694],[96.88444,27.51583],[96.88083,27.53417],[96.88028,27.54361],[96.87722,27.55306],[96.86611,27.56833],[96.86194,27.57833],[96.86194,27.59917],[96.87,27.61889],[96.88333,27.63611],[96.89972,27.64944],[96.93944,27.67389],[96.95694,27.68806],[96.99083,27.72639],[97.00389,27.73417],[97.03611,27.74278],[97.03611,27.75333],[97.03611,27.78833],[96.95417,27.82333],[96.95417,27.84694],[96.86639,27.88778],[96.78444,27.89944],[96.755,27.94056],[96.70833,27.95222],[96.65556,27.95806],[96.62056,27.99306],[96.56778,28.05167],[96.52694,28.06333],[96.49167,28.08667],[96.43917,28.13361],[96.40389,28.16278],[96.37472,28.15111],[96.36889,28.12194],[96.33361,28.11611],[96.27528,28.13944],[96.25167,28.19222],[96.2225,28.20972],[96.18139,28.21556],[96.14056,28.19222],[96.06444,28.19222],[95.98833,28.16278],[95.93583,28.18639],[95.88306,28.22139],[95.86556,28.25056],[95.84194,28.2625],[95.78944,28.25667],[95.64889,28.20389],[95.485,28.13944],[95.37389,28.11028],[95.28611,28.075],[95.27444,28.03417],[95.27444,27.98722],[95.25694,27.94056],[95.23333,27.90528],[95.15139,27.87028],[95.08111,27.83528],[95.00528,27.8],[94.94667,27.7825],[94.89611,27.74556],[94.88222,27.73556],[94.82667,27.71389],[94.78889,27.69917],[94.77694,27.69472],[94.68333,27.65361],[94.56278,27.61833],[94.51583,27.60444],[94.48417,27.59528],[94.42,27.58361],[94.33222,27.56583],[94.25556,27.55056],[94.24444,27.54833],[94.1975,27.5425],[94.13889,27.44889],[94.1125,27.4225],[94.09222,27.40194],[94.03944,27.36111],[93.99361,27.33611],[93.975,27.32583],[93.95944,27.30583],[93.93417,27.27333],[93.90472,27.24389],[93.85222,27.20306],[93.84639,27.19889],[93.80528,27.16806],[93.77611,27.11528],[93.77278,27.06444],[93.77028,27.0275],[93.72333,26.98639],[93.65917,26.96306],[93.58889,26.92806],[93.52444,26.92222],[93.425,26.91639],[93.37222,26.88694],[93.29611,26.89278],[93.19667,26.87528],[93.10306,26.86361],[92.95083,26.87528],[92.89222,26.88694],[92.83389,26.88694],[92.76944,26.88111],[92.705,26.92222],[92.64083,26.96889],[92.58222,26.96889],[92.52361,26.93389],[92.45917,26.90444],[92.38306,26.88694],[92.26028,26.86944],[92.19,26.86361],[92.13139,26.85194],[92.03583,26.85472],[91.975,26.84639],[91.95722,26.85417],[91.92556,26.87861],[91.90806,26.885],[91.89306,26.88111],[91.89528,26.86806],[91.89528,26.85333],[91.87389,26.84417],[91.88583,26.83083],[91.88667,26.81417],[91.87861,26.80278],[91.86278,26.80472],[91.85222,26.81833],[91.84944,26.83472],[91.84389,26.84917],[91.825,26.85833],[91.795,26.85333],[91.73139,26.81611],[91.70194,26.80333],[91.65361,26.79778],[91.63778,26.79889],[91.59361,26.81056],[91.57556,26.81],[91.53917,26.79861],[91.52056,26.7975],[91.50722,26.80778],[91.48444,26.8525],[91.475,26.86528],[91.46056,26.86917],[91.42,26.87139],[91.40611,26.86944],[91.38833,26.85833],[91.37806,26.84278],[91.37,26.82444],[91.35833,26.80611],[91.34556,26.79444],[91.33,26.78528],[91.31306,26.77861],[91.29639,26.77444],[91.27583,26.77389],[91.26194,26.77889],[91.23222,26.795],[91.19806,26.80222],[91.12694,26.80083],[91.09167,26.80472],[91.06194,26.80444],[91.01278,26.78417],[91.00722,26.78194],[90.94444,26.77861],[90.71694,26.76694],[90.58778,26.78],[90.475,26.83222],[90.3825,26.89167],[90.34861,26.89639],[90.32833,26.89056],[90.31417,26.88028],[90.30083,26.86806],[90.28417,26.85694],[90.26583,26.85139],[90.22889,26.85278],[90.21083,26.85139],[90.17722,26.83194],[90.15194,26.77167],[90.12694,26.75139],[90.08889,26.74167],[89.975,26.73167],[89.91194,26.71667],[89.89028,26.71472],[89.88028,26.71611],[89.85972,26.72167],[89.85861,26.72194],[89.85056,26.72306],[89.84694,26.72472],[89.83889,26.73111],[89.83472,26.73139],[89.82972,26.7275],[89.8275,26.72222],[89.82722,26.71778],[89.82667,26.71556],[89.82667,26.71333],[89.825,26.7075],[89.82194,26.70083],[89.81722,26.69611],[89.81361,26.69611],[89.80389,26.69972],[89.8,26.70028],[89.76028,26.7],[89.75444,26.70083],[89.73861,26.70306],[89.685,26.72444],[89.66306,26.72528],[89.62806,26.7125],[89.60972,26.71194],[89.5975,26.72083],[89.61333,26.74833],[89.61111,26.76583],[89.58583,26.78389],[89.54639,26.7975],[89.50528,26.80361],[89.44278,26.79694],[89.40722,26.81333],[89.36889,26.83722],[89.34139,26.85417],[89.3,26.84417],[89.28611,26.84472],[89.27333,26.84389],[89.26278,26.83611],[89.2525,26.82667],[89.24083,26.81972],[89.21278,26.81278],[89.18444,26.81056],[89.12806,26.81333],[89.09639,26.82139],[89.08222,26.83583],[89.07417,26.85639],[89.06056,26.88139],[89.04472,26.89694],[89.02139,26.9125],[88.99639,26.9225],[88.97528,26.92167],[88.96556,26.91528],[88.95444,26.9125],[88.9425,26.91361],[88.93222,26.91917],[88.92528,26.92917],[88.92528,26.93889],[88.92694,26.94917],[88.92444,26.96139],[88.90639,26.98083],[88.88639,26.97889],[88.86694,26.96417],[88.85167,26.94528],[88.84556,26.99472],[88.84556,27.04944],[88.84056,27.075],[88.8275,27.09778],[88.805,27.11278],[88.7425,27.1425],[88.73306,27.14889],[88.73,27.15083],[88.73833,27.17972],[88.75417,27.2125],[88.77583,27.24083],[88.80111,27.25639],[88.86139,27.27028],[88.87611,27.28028],[88.88444,27.28611],[88.89222,27.31528],[88.86444,27.33222],[88.85194,27.34222],[88.83083,27.36722],[88.81972,27.37361],[88.80806,27.37833],[88.79528,27.38583],[88.77333,27.40833],[88.75972,27.435],[88.75417,27.46417],[88.75694,27.49472],[88.7575,27.51139],[88.74139,27.53167],[88.74083,27.54556],[88.74806,27.56],[88.76722,27.58611],[88.78306,27.62194],[88.80556,27.655],[88.85361,27.84361],[88.855,27.85917],[88.85139,27.87694],[88.8425,27.89222],[88.81889,27.915],[88.81056,27.92778],[88.80972,27.94444],[88.81944,27.97722],[88.8175,27.99472],[88.80278,28.01083],[88.78,28.02833],[88.73556,28.055],[88.71,28.06194],[88.65194,28.06917],[88.63167,28.08333],[88.61028,28.10556],[88.59389,28.10639],[88.55278,28.07778],[88.53056,28.05889],[88.51694,28.03944],[88.50194,28.02861],[88.47528,28.03611],[88.45556,28.03139],[88.39972,27.99472],[88.37861,27.9825],[88.19778,27.95806],[88.17472,27.94972],[88.16278,27.94667],[88.15111,27.94694],[88.12667,27.95028],[88.11556,27.94722],[88.09972,27.92806],[88.09722,27.90389],[88.10472,27.87944],[88.11806,27.86083],[88.14278,27.85556],[88.15639,27.85111],[88.16444,27.84528],[88.16639,27.83333],[88.15444,27.815],[88.15944,27.77389],[88.14917,27.74861],[88.13472,27.72306],[88.11083,27.63944],[88.04861,27.54528],[88.02333,27.49472],[88.02194,27.48417],[88.02333,27.47444],[88.02806,27.455],[88.03056,27.45056],[88.03972,27.44222],[88.04139,27.43806],[88.03917,27.42944],[88.03472,27.42361],[88.02944,27.41861],[88.02556,27.41194],[88.01722,27.38917],[88.01472,27.37806],[88.01556,27.36417],[88.02,27.35333],[88.0325,27.33361],[88.035,27.3225],[88.02889,27.29806],[88.00444,27.24889],[87.98917,27.21833],[87.98528,27.14833],[87.97083,27.11917],[87.96917,27.11056],[87.97056,27.1025],[87.97528,27.095],[87.99111,27.08139],[88.00944,27.04556],[88.02722,27.03528],[88.04278,27.02889],[88.05583,27.01778],[88.07667,26.99167],[88.09667,26.95917],[88.11167,26.92417],[88.12028,26.90861],[88.14278,26.87833],[88.15139,26.86278],[88.15528,26.84556],[88.15889,26.8025],[88.16778,26.76278],[88.16889,26.74389],[88.1675,26.725],[88.16333,26.705],[88.14639,26.66111],[88.10167,26.58194],[88.08694,26.53889],[88.07972,26.5175],[88.07889,26.50722],[88.08222,26.49472],[88.07417,26.45389],[88.04417,26.40556],[88.00639,26.36972],[87.97528,26.36639],[87.96111,26.37889],[87.92889,26.39639],[87.91472,26.40806],[87.90833,26.41778],[87.90194,26.43528],[87.89722,26.44333],[87.89472,26.44278],[87.87056,26.46056],[87.86972,26.46444],[87.85194,26.46056],[87.82139,26.4375],[87.80417,26.43722],[87.78583,26.44583],[87.76889,26.45139],[87.75611,26.44667],[87.74944,26.42556],[87.74194,26.41028],[87.7275,26.40361],[87.71083,26.40556],[87.6975,26.41611],[87.68111,26.42417],[87.65944,26.4175],[87.64861,26.40972],[87.62389,26.39278],[87.58694,26.37778],[87.55194,26.38667],[87.48028,26.42333],[87.44944,26.42861],[87.41639,26.42694],[87.38417,26.41861],[87.35639,26.40361],[87.34472,26.38917],[87.32611,26.35306],[87.31389,26.34361],[87.30028,26.34583],[87.25833,26.36278],[87.24528,26.37],[87.23611,26.38306],[87.22917,26.39861],[87.21889,26.40806],[87.18833,26.39944],[87.135,26.39417],[87.10611,26.40472],[87.08306,26.43194],[87.06667,26.46556],[87.05667,26.49472],[87.05639,26.49472],[87.045,26.54417],[87.04417,26.56111],[87.04111,26.58],[87.02972,26.57972],[87.01528,26.56889],[86.985,26.54056],[86.97222,26.53194],[86.935,26.52028],[86.90694,26.51139],[86.87583,26.49472],[86.86556,26.47222],[86.84611,26.4525],[86.82167,26.43806],[86.79639,26.43139],[86.78722,26.43306],[86.75167,26.44528],[86.73806,26.44361],[86.73056,26.43361],[86.72389,26.42194],[86.71333,26.41444],[86.695,26.41806],[86.62528,26.45611],[86.55778,26.48389],[86.53778,26.49472],[86.5375,26.49472],[86.52417,26.50889],[86.51056,26.52],[86.49472,26.52778],[86.47528,26.53194],[86.44472,26.54306],[86.38361,26.57278],[86.35361,26.5825],[86.34472,26.5825],[86.32306,26.58],[86.31583,26.58083],[86.30889,26.58778],[86.30861,26.60194],[86.30111,26.60889],[86.28417,26.61194],[86.26306,26.60889],[86.225,26.59722],[86.20278,26.58444],[86.19583,26.5825],[86.18528,26.58417],[86.17917,26.58833],[86.17444,26.59306],[86.16778,26.59639],[86.1525,26.60056],[86.14611,26.60111],[86.14472,26.60139],[86.12194,26.60028],[86.11583,26.6025],[86.11056,26.60667],[86.04167,26.64528],[86.01111,26.65444],[85.97556,26.64417],[85.95194,26.64194],[85.93444,26.63278],[85.86611,26.57972],[85.84472,26.56833],[85.82833,26.56611],[85.82139,26.57167],[85.81972,26.57944],[85.81944,26.58806],[85.8175,26.59667],[85.80972,26.60278],[85.8,26.60056],[85.78972,26.59694],[85.78083,26.59917],[85.72694,26.6375],[85.71278,26.65306],[85.70222,26.68833],[85.70944,26.76222],[85.70167,26.79639],[85.6875,26.81167],[85.60917,26.85083],[85.59833,26.85417],[85.51944,26.82639],[85.47556,26.805],[85.43944,26.7875],[85.42139,26.7825],[85.40306,26.7875],[85.38583,26.78833],[85.36917,26.775],[85.35528,26.75972],[85.35306,26.7575],[85.33694,26.74667],[85.30222,26.73722],[85.28722,26.73694],[85.19472,26.75861],[85.16556,26.78611],[85.16528,26.82056],[85.16194,26.85083],[85.12278,26.86556],[85.1,26.86333],[85.04389,26.84361],[85.01833,26.84556],[85.01667,26.85917],[85.01778,26.87417],[85.00083,26.88222],[84.98806,26.88361],[84.97556,26.88667],[84.9525,26.8975],[84.94417,26.91556],[84.93833,26.93639],[84.92389,26.95556],[84.90139,26.96694],[84.85167,26.98194],[84.82806,26.99472],[84.81722,27.01056],[84.80167,27.01361],[84.78528,27.00833],[84.77194,26.99917],[84.76056,26.99889],[84.64,27.02833],[84.62722,27.03639],[84.62139,27.05778],[84.63028,27.08056],[84.64444,27.10361],[84.65417,27.12528],[84.65972,27.165],[84.6575,27.20333],[84.64806,27.24056],[84.63167,27.27694],[84.60639,27.31028],[84.57694,27.32889],[84.28917,27.37583],[84.2675,27.38833],[84.24889,27.41222],[84.23889,27.43111],[84.22528,27.44028],[84.195,27.43583],[84.18583,27.43861],[84.175,27.46278],[84.16556,27.47194],[84.14167,27.48056],[84.13083,27.48639],[84.12139,27.49472],[84.11694,27.51306],[84.09944,27.51667],[84.07944,27.50944],[84.02889,27.45361],[84.0075,27.44056],[83.97583,27.43944],[83.93583,27.44583],[83.92278,27.44972],[83.92194,27.44944],[83.89972,27.44361],[83.85333,27.44083],[83.83389,27.43389],[83.8425,27.41806],[83.87111,27.38917],[83.87361,27.38],[83.8775,27.36972],[83.87722,27.36167],[83.8675,27.35833],[83.86167,27.35444],[83.85444,27.345],[83.85333,27.34611],[83.84778,27.35083],[83.80194,27.36583],[83.66333,27.43222],[83.59028,27.45639],[83.48083,27.46972],[83.38694,27.47028],[83.36083,27.46194],[83.35583,27.45222],[83.35361,27.44028],[83.35556,27.42861],[83.37083,27.41],[83.36944,27.39806],[83.3625,27.38556],[83.34111,27.35667],[83.32417,27.34167],[83.30472,27.33167],[83.28222,27.33083],[83.25944,27.33806],[83.24917,27.34806],[83.24306,27.36194],[83.23139,27.38111],[83.21917,27.39361],[83.16944,27.43111],[83.13278,27.44417],[83.01028,27.44333],[82.94694,27.45722],[82.90111,27.48028],[82.87611,27.4875],[82.75194,27.49472],[82.72944,27.51806],[82.71861,27.55611],[82.7175,27.56306],[81.54972,27.15583],[80.89444,26.75861],[80.19833,26.4],[79.83139,25.28361],[79.59806,25.60028],[78.99861,25.13361],[79.08194,25.00028],[80.05917,23.18028],[80.35417,22.48028],[80.59333,21.5025],[82,18.71639],[82.81639,18.68333],[85.9,15.69972],[92,14]]]}}, {"type":"Feature","id":4,"properties":{"_id":"6903715b6ce882e95350e37c","createdBy":"343335871795179081","createdAt":"2025-10-30T14:08:27.134Z","updatedBy":"eBT9qSrxquPVguazo7MwJzzaf2p1","updatedAt":"2025-10-30T15:19:58.320Z","name":"DELHI","dataIngestion":false,"type":10,"icaoClass":8,"activity":0,"onDemand":false,"onRequest":false,"byNotam":false,"specialAgreement":false,"requestCompliance":false,"country":"IN","upperLimit":{"value":999,"unit":6,"referenceDatum":2},"lowerLimit":{"value":0,"unit":1,"referenceDatum":0},"hoursOfOperation":{"operatingHours":[{"dayOfWeek":0,"startTime":"00:00","endTime":"00:00","byNotam":false,"sunrise":false,"sunset":false,"publicHolidaysExcluded":false},{"dayOfWeek":1,"startTime":"00:00","endTime":"00:00","byNotam":false,"sunrise":false,"sunset":false,"publicHolidaysExcluded":false},{"dayOfWeek":2,"startTime":"00:00","endTime":"00:00","byNotam":false,"sunrise":false,"sunset":false,"publicHolidaysExcluded":false},{"dayOfWeek":3,"startTime":"00:00","endTime":"00:00","byNotam":false,"sunrise":false,"sunset":false,"publicHolidaysExcluded":false},{"dayOfWeek":4,"startTime":"00:00","endTime":"00:00","byNotam":false,"sunrise":false,"sunset":false,"publicHolidaysExcluded":false},{"dayOfWeek":5,"startTime":"00:00","endTime":"00:00","byNotam":false,"sunrise":false,"sunset":false,"publicHolidaysExcluded":false},{"dayOfWeek":6,"startTime":"00:00","endTime":"00:00","byNotam":false,"sunrise":false,"sunset":false,"publicHolidaysExcluded":false}]},"deletable":true},"geometry":{"type":"Polygon","coordinates":[[[70.89333,25.00139],[79.08194,25.00028],[78.99861,25.13361],[79.59806,25.60028],[79.83139,25.28361],[80.19833,26.4],[80.89444,26.75861],[81.54972,27.15583],[82.7175,27.56306],[82.70917,27.63083],[82.69694,27.66917],[82.67944,27.69417],[82.67389,27.69639],[82.65194,27.70389],[82.52611,27.675],[82.44056,27.66639],[82.40167,27.67694],[82.34778,27.72583],[82.27028,27.76028],[82.15083,27.84806],[82.10722,27.86333],[82.09028,27.87222],[82.07139,27.89],[82.05139,27.905],[82.05,27.90556],[82.02694,27.91222],[81.97583,27.91694],[81.94639,27.90528],[81.90583,27.86306],[81.88306,27.84889],[81.85556,27.85083],[81.82778,27.86556],[81.8,27.88389],[81.75,27.90944],[81.71028,27.9475],[81.68889,27.96306],[81.66528,27.97056],[81.615,27.98111],[81.59528,27.99472],[81.595,27.99472],[81.58194,28.01306],[81.56167,28.02583],[81.47333,28.06639],[81.45806,28.07722],[81.45389,28.08639],[81.45278,28.09694],[81.44806,28.11139],[81.435,28.12972],[81.41722,28.14694],[81.39583,28.16056],[81.37306,28.16778],[81.35778,28.16583],[81.35139,28.15667],[81.34722,28.14417],[81.33806,28.1325],[81.32361,28.12611],[81.30694,28.12361],[81.29611,28.12806],[81.29917,28.1425],[81.28306,28.14583],[81.27667,28.15361],[81.28056,28.16194],[81.29583,28.16722],[81.28222,28.19139],[81.22417,28.25056],[81.21056,28.27861],[81.19028,28.33806],[81.16944,28.36111],[81.14611,28.37222],[81.04694,28.38889],[81.00028,28.39694],[80.99306,28.40778],[80.99111,28.42],[80.98778,28.43083],[80.97583,28.43667],[80.96028,28.43222],[80.94111,28.4325],[80.92111,28.43611],[80.905,28.44083],[80.88667,28.45278],[80.88167,28.46667],[80.88028,28.48167],[80.87222,28.49667],[80.85778,28.50222],[80.81694,28.5025],[80.79833,28.50556],[80.78139,28.51472],[80.74333,28.54972],[80.72694,28.55944],[80.69556,28.5675],[80.67861,28.57444],[80.66806,28.58611],[80.64833,28.61972],[80.63556,28.62778],[80.59833,28.63361],[80.58111,28.63889],[80.56333,28.64694],[80.55667,28.655],[80.55722,28.66417],[80.55889,28.67278],[80.55583,28.67889],[80.53417,28.67944],[80.5175,28.68],[80.4975,28.67],[80.4875,28.65639],[80.48472,28.63917],[80.49333,28.57556],[80.48833,28.56222],[80.46861,28.57167],[80.42639,28.61667],[80.40833,28.62611],[80.38806,28.62722],[80.36889,28.6225],[80.34972,28.62],[80.32944,28.62722],[80.31806,28.64],[80.29083,28.68944],[80.28333,28.69528],[80.265,28.69917],[80.25694,28.7025],[80.24917,28.71],[80.23889,28.72611],[80.23306,28.7325],[80.21639,28.74167],[80.18111,28.74722],[80.16194,28.75306],[80.1475,28.76306],[80.11417,28.8025],[80.08167,28.81917],[80.07278,28.82083],[80.05472,28.82417],[80.03611,28.83694],[80.03028,28.8775],[80.03111,28.89778],[80.03389,28.91583],[80.04028,28.93278],[80.05278,28.94889],[80.06833,28.95972],[80.085,28.96722],[80.09917,28.97722],[80.10778,28.99444],[80.10778,28.99472],[80.10444,29.0275],[80.11306,29.07194],[80.1325,29.11],[80.16333,29.12333],[80.18056,29.12111],[80.20139,29.12111],[80.22056,29.12583],[80.23306,29.13917],[80.23028,29.15472],[80.21361,29.19639],[80.21861,29.21083],[80.23583,29.21306],[80.24861,29.20417],[80.25806,29.20222],[80.27861,29.26806],[80.28278,29.29111],[80.28,29.31],[80.2725,29.31556],[80.26333,29.31528],[80.25472,29.31639],[80.24944,29.32694],[80.24194,29.36722],[80.22083,29.4],[80.21361,29.41667],[80.2175,29.43444],[80.22806,29.44167],[80.25722,29.45],[80.26333,29.45917],[80.26611,29.47194],[80.27306,29.47861],[80.28194,29.48417],[80.29111,29.49444],[80.29139,29.49472],[80.31139,29.50806],[80.32,29.51556],[80.32694,29.52472],[80.3275,29.52972],[80.325,29.53528],[80.32333,29.54139],[80.32694,29.54833],[80.3325,29.55222],[80.345,29.55833],[80.35056,29.56194],[80.37306,29.58417],[80.385,29.60472],[80.38667,29.62667],[80.3775,29.65278],[80.36389,29.67944],[80.35417,29.70472],[80.35417,29.73028],[80.36889,29.75778],[80.395,29.77639],[80.45472,29.79056],[80.47611,29.80611],[80.52722,29.86222],[80.54944,29.89361],[80.56278,29.92944],[80.57111,29.94667],[80.58611,29.95389],[80.62222,29.95806],[80.64139,29.96333],[80.65389,29.97056],[80.68,29.99194],[80.71556,30.01306],[80.72556,30.0225],[80.75556,30.06444],[80.76944,30.07722],[80.82972,30.11694],[80.84944,30.14333],[80.83639,30.17],[80.85028,30.18167],[80.86778,30.2],[80.88361,30.21028],[80.89361,30.19806],[80.90306,30.18028],[80.92056,30.17639],[80.98806,30.19639],[80.99583,30.19694],[81.00306,30.2125],[80.99611,30.22667],[80.97583,30.255],[80.94361,30.27],[80.86694,30.28833],[80.78139,30.32083],[80.76694,30.33139],[80.75472,30.34556],[80.73528,30.37806],[80.72306,30.39194],[80.69472,30.41167],[80.59611,30.45972],[80.575,30.46611],[80.55972,30.465],[80.545,30.46083],[80.525,30.45833],[80.50806,30.46222],[80.47528,30.48028],[80.42472,30.49778],[80.32583,30.54639],[80.25278,30.565],[80.21611,30.56667],[80.17972,30.55944],[80.15278,30.59611],[80.12417,30.63667],[80.07639,30.67833],[80.00917,30.68944],[80.01,30.75917],[80.00083,30.79944],[79.94333,30.83083],[79.91917,30.88111],[79.91444,30.88361],[79.90306,30.89],[79.88028,30.91278],[79.86278,30.94139],[79.85028,30.95444],[79.83333,30.96139],[79.76056,30.97722],[79.73889,30.97917],[79.68833,30.96722],[79.64806,30.96556],[79.63028,30.9625],[79.58944,30.94],[79.57778,30.93833],[79.56583,30.94222],[79.54417,30.94722],[79.52944,30.95333],[79.5125,30.96611],[79.4975,30.98111],[79.48806,30.99444],[79.48667,31],[79.48417,31.00528],[79.48056,31.01],[79.47639,31.01389],[79.46139,31.02083],[79.44611,31.02361],[79.43056,31.02306],[79.41417,31.02028],[79.40139,31.02361],[79.39472,31.03667],[79.38833,31.06944],[79.3825,31.07833],[79.38194,31.07806],[79.23806,31.07444],[79.14556,31.10444],[79.03167,31.08972],[78.95222,31.1075],[78.94694,31.12],[78.93472,31.14861],[78.92611,31.18944],[78.8975,31.23],[78.86083,31.28],[78.84861,31.29083],[78.82194,31.29361],[78.79583,31.28806],[78.78444,31.28806],[78.75306,31.30194],[78.745,31.30806],[78.74083,31.3175],[78.73833,31.33472],[78.74528,31.37333],[78.76,31.41194],[78.7625,31.445],[78.73278,31.4675],[78.69528,31.48806],[78.69944,31.51],[78.79694,31.57861],[78.81389,31.595],[78.81861,31.60722],[78.79528,31.63361],[78.75806,31.66639],[78.73972,31.66583],[78.73111,31.66778],[78.72389,31.67306],[78.71833,31.68056],[78.71028,31.69806],[78.69806,31.71083],[78.69306,31.71833],[78.6925,31.72833],[78.695,31.73778],[78.69556,31.74667],[78.67083,31.77028],[78.67389,31.78694],[78.70028,31.82167],[78.70639,31.84056],[78.71417,31.88278],[78.68167,31.95083],[78.60472,32.00917],[78.53333,32.05972],[78.47139,32.14083],[78.44139,32.1225],[78.38167,32.18222],[78.46889,32.22639],[78.46833,32.22667],[78.45778,32.22944],[78.45611,32.24194],[78.46139,32.26],[78.4625,32.28167],[78.43861,32.37306],[78.43583,32.37778],[78.43444,32.38361],[78.43611,32.39611],[78.44139,32.40472],[78.44806,32.41056],[78.45194,32.41667],[78.44861,32.42667],[78.40917,32.47639],[78.38083,32.52778],[78.38472,32.5475],[78.40806,32.55833],[78.4475,32.56611],[78.58972,32.56972],[78.63,32.57778],[78.6475,32.58583],[78.66472,32.59889],[78.69444,32.62944],[78.71306,32.6375],[78.73667,32.62972],[78.75083,32.61278],[78.74889,32.59583],[78.74056,32.57861],[78.73472,32.56056],[78.73667,32.54556],[78.75444,32.49361],[78.77139,32.46139],[78.85556,32.40028],[78.88139,32.37611],[78.91111,32.35472],[78.94333,32.34611],[78.97611,32.36139],[78.98972,32.36389],[79.01472,32.37389],[79.02806,32.37694],[79.03944,32.37583],[79.06611,32.37],[79.07528,32.37056],[79.09167,32.39056],[79.10278,32.44972],[79.11278,32.47222],[79.13278,32.48528],[79.16139,32.49639],[79.19111,32.50417],[79.215,32.50778],[79.21417,32.58111],[79.21944,32.62167],[79.22889,32.65611],[79.24,32.70139],[79.23028,32.75083],[79.20556,32.80889],[79.20111,32.83806],[79.21194,32.91972],[79.17583,32.98472],[79.17583,32.99333],[79.10917,33.00778],[79.095,33.055],[79.11556,33.09],[79.13944,33.12472],[79.14,33.16],[79.125,33.29],[79.09778,33.2875],[79.075,33.29556],[79.05306,33.30778],[79.02278,33.31778],[78.99333,33.33056],[78.96472,33.34417],[78.9175,33.38611],[78.91583,33.3875],[78.82417,33.46083],[78.80083,33.49417],[78.78111,33.55278],[78.79389,33.74389],[78.78722,33.80833],[78.77028,33.87222],[78.72111,33.99417],[78.73,34.07917],[78.80583,34.12278],[78.90306,34.15806],[78.97611,34.21694],[78.98528,34.23972],[78.98833,34.26306],[78.98528,34.28611],[78.97611,34.30917],[78.95667,34.33972],[78.95111,34.34917],[78.92194,34.37222],[78.88583,34.38556],[78.83917,34.39667],[78.80167,34.415],[78.75056,34.47111],[78.66444,34.52639],[78.60722,34.54639],[78.37917,34.57861],[78.33528,34.59417],[78.29583,34.62444],[78.27306,34.65861],[78.21111,34.84806],[78.20222,34.86556],[78.16194,34.90861],[78.14806,34.94306],[78.13917,35.01889],[78.13,35.05528],[78.03639,35.19417],[78.00111,35.26889],[78.00972,35.34722],[78.03806,35.39806],[78.05556,35.45278],[78.04417,35.49139],[77.98583,35.49389],[77.95778,35.48194],[77.9125,35.44083],[77.88306,35.43083],[77.85694,35.43639],[77.83417,35.45194],[77.81528,35.47333],[77.80028,35.49528],[77.77333,35.49889],[77.76028,35.49806],[77.74722,35.49417],[77.71667,35.47528],[77.68944,35.4625],[77.66056,35.45806],[77.51944,35.47722],[77.51194,35.47833],[77.47639,35.47694],[77.4125,35.46917],[77.38361,35.47194],[77.35194,35.48583],[77.30528,35.51778],[77.28083,35.52778],[77.25056,35.53056],[77.1775,35.52306],[77.14111,35.52528],[77.10528,35.53778],[77.09222,35.54778],[77.07083,35.57083],[77.05806,35.58],[77.03889,35.585],[77.0175,35.58444],[76.97639,35.57861],[76.93556,35.57944],[76.915,35.58306],[76.89639,35.58944],[76.88028,35.60056],[76.85667,35.62833],[76.84278,35.64111],[76.82444,35.64778],[76.78278,35.64556],[76.77722,35.64611],[76.91306,35.37806],[77.04889,35.11028],[77.04222,35.10694],[77.02306,35.08611],[77.02694,35.06194],[77.035,35.03444],[77.02833,35.00333],[77.01306,34.98639],[76.95278,34.94639],[76.93361,34.92861],[76.92111,34.92056],[76.90583,34.92306],[76.87944,34.93694],[76.8525,34.94333],[76.81694,34.94056],[76.78194,34.93083],[76.7575,34.915],[76.74944,34.89194],[76.75306,34.83833],[76.74361,34.81917],[76.6525,34.74694],[76.63944,34.74111],[76.55306,34.72583],[76.53556,34.72611],[76.51972,34.73111],[76.47639,34.7575],[76.43806,34.76278],[76.39972,34.75056],[76.26194,34.68444],[76.15472,34.66139],[76.12167,34.66083],[76.05833,34.68333],[76.02333,34.67694],[76.00722,34.665],[75.98667,34.63583],[75.97333,34.62222],[75.96611,34.61889],[75.93917,34.61194],[75.87389,34.57111],[75.81611,34.52139],[75.79556,34.50778],[75.77694,34.50361],[75.73472,34.50861],[75.71361,34.50833],[75.65556,34.49694],[75.61139,34.49833],[75.34806,34.55694],[75.30694,34.57389],[75.26722,34.59806],[75.25111,34.61306],[75.23667,34.63167],[75.22444,34.63861],[75.21278,34.64472],[75.17611,34.64528],[75.11083,34.63361],[75.0175,34.62944],[74.66472,34.68806],[74.41194,34.76444],[74.34861,34.77333],[74.28556,34.76861],[74.22167,34.7475],[74.14667,34.70167],[74.12083,34.69083],[73.96222,34.66806],[73.94833,34.6625],[73.91917,34.6425],[73.91722,34.61917],[73.92528,34.59333],[73.92583,34.56472],[73.91083,34.54472],[73.86306,34.51694],[73.84694,34.49417],[73.84528,34.45639],[73.84028,34.44417],[73.83139,34.43639],[73.80667,34.425],[73.79611,34.41833],[73.77972,34.39583],[73.77472,34.37083],[73.7825,34.34667],[73.80417,34.32722],[73.82889,34.31528],[73.85306,34.30722],[73.87889,34.30417],[73.90722,34.30667],[73.9375,34.30417],[73.95417,34.28694],[73.97667,34.2375],[73.99028,34.21833],[73.99806,34.19667],[73.99528,34.17639],[73.97667,34.16139],[73.91667,34.135],[73.89306,34.11472],[73.88417,34.08417],[73.89361,34.05417],[73.91611,34.02778],[73.94556,34.00972],[73.97667,34.00444],[74.045,34.01917],[74.065,34.01833],[74.11833,34.0025],[74.15417,34.00389],[74.19194,34.01167],[74.22833,34.01278],[74.25944,33.99417],[74.27222,33.96194],[74.26222,33.92972],[74.23944,33.90083],[74.2125,33.87833],[74.1775,33.8575],[74.14222,33.84417],[74.03444,33.82833],[74.01111,33.81028],[73.97667,33.75889],[73.97056,33.74694],[73.96611,33.73444],[73.96306,33.72139],[73.96056,33.69222],[73.96306,33.67667],[73.96806,33.66194],[73.97667,33.64833],[74.02417,33.61417],[74.08806,33.58528],[74.14139,33.54917],[74.15778,33.49417],[74.13611,33.41778],[74.10528,33.345],[74.09583,33.32833],[74.085,33.31417],[74.07194,33.30222],[74.05528,33.29194],[74.01778,33.27944],[74.00167,33.27],[73.99167,33.2525],[73.98833,33.20861],[74.00222,33.1775],[74.02917,33.15389],[74.06556,33.1325],[74.09833,33.10472],[74.15361,33.04],[74.19083,33.02194],[74.28389,33.00861],[74.31111,32.99417],[74.32194,32.97194],[74.32444,32.92139],[74.33667,32.87],[74.33361,32.84917],[74.32278,32.83028],[74.31694,32.82306],[74.31583,32.82167],[74.30639,32.80972],[74.31611,32.79083],[74.32917,32.77639],[74.34611,32.76667],[74.3675,32.76333],[74.38639,32.7675],[74.41889,32.78444],[74.43861,32.78583],[74.45528,32.77833],[74.48444,32.75333],[74.50083,32.74583],[74.52083,32.74528],[74.57361,32.7525],[74.59333,32.75778],[74.61389,32.77028],[74.62194,32.78528],[74.62611,32.8025],[74.63583,32.82194],[74.65333,32.83722],[74.67167,32.84056],[74.68528,32.83111],[74.68889,32.80861],[74.68222,32.78722],[74.65694,32.74528],[74.64972,32.72306],[74.65,32.70111],[74.65722,32.66056],[74.65583,32.64056],[74.64778,32.62361],[74.63667,32.60611],[74.62944,32.58806],[74.6325,32.56806],[74.6625,32.49833],[74.68917,32.47111],[74.72472,32.46056],[74.76333,32.4625],[74.79917,32.4725],[74.83806,32.47472],[74.90694,32.445],[74.94833,32.44861],[74.99056,32.46333],[75.02361,32.46611],[75.05472,32.45528],[75.09194,32.42917],[75.12583,32.41167],[75.19611,32.39722],[75.23,32.38],[75.29833,32.33222],[75.32667,32.31222],[75.35278,32.28417],[75.35889,32.26167],[75.34833,32.24194],[75.31639,32.21056],[75.30833,32.19389],[75.29806,32.15972],[75.29444,32.14889],[75.26333,32.15083],[75.24972,32.14889],[75.22639,32.14194],[75.19556,32.12861],[75.17306,32.10944],[75.17389,32.08667],[75.16111,32.08778],[75.13833,32.09333],[75.12972,32.09],[75.11889,32.08083],[75.11028,32.0775],[75.10194,32.07806],[75.04056,32.09778],[75.0225,32.09444],[75.03,32.06639],[75.02,32.06583],[74.99556,32.06722],[74.98611,32.06306],[74.97833,32.05333],[74.97389,32.04472],[74.96778,32.03778],[74.95556,32.03194],[74.93111,32.02972],[74.90861,32.03167],[74.88889,32.02889],[74.87306,32.01167],[74.82861,32.02528],[74.81111,32.00361],[74.80222,31.96861],[74.78361,31.94278],[74.76278,31.93889],[74.69833,31.95],[74.66972,31.90389],[74.65694,31.89556],[74.64083,31.89056],[74.56556,31.84028],[74.55028,31.82694],[74.54056,31.81083],[74.53722,31.78889],[74.53694,31.77556],[74.535,31.77111],[74.53056,31.76778],[74.52278,31.75833],[74.52111,31.75361],[74.51806,31.74167],[74.51611,31.73722],[74.51306,31.735],[74.50528,31.73194],[74.50306,31.73056],[74.4925,31.71444],[74.48917,31.71111],[74.49944,31.69972],[74.55556,31.61222],[74.58444,31.5175],[74.61444,31.47778],[74.61694,31.45889],[74.61167,31.44],[74.6,31.42389],[74.58361,31.40639],[74.57139,31.38917],[74.53222,31.30306],[74.52528,31.28],[74.525,31.23528],[74.50889,31.19556],[74.50611,31.17528],[74.50944,31.15583],[74.51472,31.14167],[74.52333,31.12917],[74.53667,31.115],[74.55306,31.10889],[74.59667,31.11556],[74.61694,31.115],[74.63194,31.1075],[74.65,31.09306],[74.65861,31.08361],[74.60083,31.05639],[74.57944,31.0425],[74.56417,31.025],[74.56389,31.00417],[74.54861,30.99194],[74.53472,30.97611],[74.51917,30.96222],[74.49944,30.95639],[74.47722,30.95583],[74.45833,30.95333],[74.44139,30.94611],[74.42417,30.93222],[74.41333,30.915],[74.40889,30.90083],[74.40111,30.89306],[74.37944,30.89444],[74.35361,30.90111],[74.34222,30.90167],[74.32972,30.89944],[74.31917,30.89333],[74.31056,30.88444],[74.30389,30.87389],[74.31111,30.85583],[74.3,30.83806],[74.27972,30.82444],[74.26,30.81917],[74.25667,30.81528],[74.26556,30.79528],[74.26667,30.78833],[74.25917,30.78083],[74.24389,30.77111],[74.23556,30.76389],[74.215,30.73722],[74.19861,30.72472],[74.19111,30.71694],[74.18444,30.69667],[74.17,30.68694],[74.16667,30.67889],[74.16361,30.66472],[74.15556,30.65944],[74.1325,30.65528],[74.11139,30.64611],[74.09583,30.63694],[74.08222,30.62583],[74.06722,30.61028],[74.05694,30.59139],[74.05806,30.57444],[74.06139,30.55556],[74.0575,30.53111],[74.04389,30.51861],[74.00417,30.50889],[73.99583,30.50083],[73.98972,30.48778],[73.93889,30.42583],[73.92917,30.41889],[73.91639,30.41694],[73.89972,30.42194],[73.90194,30.41556],[73.90417,30.40139],[73.90611,30.39472],[73.8875,30.39639],[73.8675,30.38722],[73.85167,30.3725],[73.845,30.35694],[73.84222,30.35278],[73.89139,30.32972],[73.91167,30.30361],[73.93444,30.26083],[73.94889,30.21722],[73.94667,30.20389],[73.94417,30.18806],[73.77806,30.06722],[73.73944,30.04833],[73.55778,30.0125],[73.385,29.94222],[73.37028,29.92722],[73.32722,29.805],[73.28472,29.68361],[73.23278,29.53639],[73.17778,29.44333],[73.12889,29.36028],[73.05083,29.22806],[72.98861,29.15444],[72.96278,29.11667],[72.93028,29.0475],[72.91806,29.03278],[72.90139,29.0225],[72.7725,28.96333],[72.65833,28.91083],[72.52556,28.84972],[72.38194,28.78389],[72.35444,28.76694],[72.28,28.68694],[72.25639,28.64556],[72.19778,28.44472],[72.1775,28.39694],[72.14972,28.35361],[72.11083,28.3175],[71.98806,28.22806],[71.90806,28.13556],[71.89667,28.11528],[71.89139,28.09694],[71.87972,27.97472],[71.87417,27.95944],[71.86083,27.95],[71.70139,27.90667],[71.56056,27.86833],[71.47694,27.86222],[71.39778,27.86833],[71.31139,27.86167],[71.22611,27.84528],[71.15056,27.82222],[71.0275,27.76778],[70.91361,27.71778],[70.83139,27.70139],[70.76167,27.70972],[70.71028,27.74111],[70.67167,27.79083],[70.64056,27.85472],[70.6375,27.87417],[70.64139,27.91111],[70.63306,27.93139],[70.62111,27.94389],[70.59278,27.96444],[70.55972,27.99833],[70.53472,28.01583],[70.50667,28.02889],[70.47722,28.03722],[70.45611,28.03972],[70.43667,28.03528],[70.39806,28.02139],[70.35944,28.01611],[70.34167,28.01139],[70.32361,28.00028],[70.2675,27.945],[70.19889,27.90083],[70.18889,27.89167],[70.10194,27.81167],[70.09056,27.79333],[70.01667,27.60056],[69.99333,27.57083],[69.90806,27.49722],[69.84778,27.41028],[69.73056,27.31028],[69.66611,27.27],[69.57556,27.18833],[69.53417,27.12556],[69.5075,27.05],[69.48583,26.92667],[69.465,26.8075],[69.47278,26.76639],[69.50389,26.735],[69.65917,26.6775],[69.7,26.65278],[69.77222,26.595],[69.81556,26.58028],[70.05583,26.58889],[70.09361,26.58028],[70.12944,26.5625],[70.15806,26.53],[70.16278,26.49306],[70.15694,26.41083],[70.16028,26.37111],[70.15694,26.35389],[70.14778,26.33306],[70.14222,26.31361],[70.14389,26.29417],[70.15139,26.25389],[70.14667,26.21722],[70.13194,26.18028],[70.07806,26.09944],[70.07389,26.08306],[70.07278,26.04722],[70.06417,25.99528],[70.06444,25.98028],[70.08306,25.92972],[70.11472,25.88167],[70.15417,25.83917],[70.19556,25.80694],[70.21389,25.78611],[70.23444,25.73083],[70.24917,25.7075],[70.26444,25.69722],[70.30361,25.68444],[70.36,25.67333],[70.47722,25.67611],[70.51639,25.68361],[70.55417,25.69861],[70.59222,25.70861],[70.63222,25.70111],[70.65361,25.67444],[70.65722,25.63361],[70.65278,25.54583],[70.64639,25.43111],[70.65444,25.39639],[70.67028,25.37556],[70.71028,25.33583],[70.71833,25.31056],[70.72306,25.28722],[70.73472,25.26722],[70.76833,25.23306],[70.83139,25.18306],[70.84833,25.16306],[70.85972,25.13944],[70.89306,25.00167],[70.89333,25.00139]]]}}]}